{
    "links": {
        "self": "http://www.neowsapp.com/rest/v1/neo/3649825?api_key=iIulBulltgU6a56xZRHN4H3l9WmuAYTsLGpBGhQ2"
    },
    "id": "3649825",
    "neo_reference_id": "3649825",
    "name": "(2013 TL69)",
    "designation": "2013 TL69",
    "nasa_jpl_url": "http://ssd.jpl.nasa.gov/sbdb.cgi?sstr=3649825",
    "absolute_magnitude_h": 21.3,
    "estimated_diameter": {
        "kilometers": {
            "estimated_diameter_min": 0.1460679643,
            "estimated_diameter_max": 0.3266178974
        },
        "meters": {
            "estimated_diameter_min": 146.0679642714,
            "estimated_diameter_max": 326.6178974458
        },
        "miles": {
            "estimated_diameter_min": 0.090762397,
            "estimated_diameter_max": 0.2029508896
        },
        "feet": {
            "estimated_diameter_min": 479.2256199,
            "estimated_diameter_max": 1071.581062656
        }
    },
    "is_potentially_hazardous_asteroid": false,
    "close_approach_data": [
        {
            "close_approach_date": "2013-10-16",
            "close_approach_date_full": "2013-Oct-16 05:23",
            "epoch_date_close_approach": 1381900980000,
            "relative_velocity": {
                "kilometers_per_second": "19.8330361811",
                "kilometers_per_hour": "71398.9302520644",
                "miles_per_hour": "44364.5186335675"
            },
            "miss_distance": {
                "astronomical": "0.228689764",
                "lunar": "88.960318196",
                "kilometers": "34211501.58520268",
                "miles": "21258041.336569784"
            },
            "orbiting_body": "Earth"
        }
    ],
    "orbital_data": {
        "orbit_id": "20",
        "orbit_determination_date": "2017-04-06 08:44:14",
        "first_observation_date": "2013-10-07",
        "last_observation_date": "2013-11-02",
        "data_arc_in_days": 26,
        "observations_used": 80,
        "orbit_uncertainty": "7",
        "minimum_orbit_intersection": ".17348",
        "jupiter_tisserand_invariant": "3.060",
        "epoch_osculation": "2459000.5",
        "eccentricity": ".5278141146126698",
        "semi_major_axis": "2.473343887776699",
        "inclination": "35.2719686659137",
        "ascending_node_longitude": "198.2087754999803",
        "orbital_period": "1420.774594189923",
        "perihelion_distance": "1.167878073517182",
        "perihelion_argument": "187.5110133344409",
        "aphelion_distance": "3.778809702036216",
        "perihelion_time": "2459433.928611298244",
        "mean_anomaly": "250.1765975366885",
        "mean_motion": ".2533829092047212",
        "equinox": "J2000",
        "orbit_class": {
            "orbit_class_type": "AMO",
            "orbit_class_description": "Near-Earth asteroid orbits similar to that of 1221 Amor",
            "orbit_class_range": "1.017 AU < q (perihelion) < 1.3 AU"
        }
    },
    "is_sentry_object": false
}